0 PEGASUS DEB
1 24236U 94029LK  13282.38815014  .00005205  00000-0  10337-2 0  5036
2 24236 081.4268 137.7417 0500233 143.1344 277.5176 14.04584323876540
0 PEGASUS DEB
1 24236U 94029LK  13283.82605490  .00006947  00000-0  13808-2 0  5042
2 24236 081.4268 136.3770 0500175 139.0643 348.3188 14.04597671876740
0 PEGASUS DEB
1 24236U 94029LK  13286.37736442  .00005381  00000-0  10683-2 0  5068
2 24236 081.4268 133.9557 0500079 131.8535 289.2420 14.04621488877106
0 PEGASUS DEB
1 24236U 94029LK  13287.81618020  .00008252  00000-0  16401-2 0  5074
2 24236 081.4264 132.5902 0500054 127.7823 004.8614 14.04638490877307
0 PEGASUS DEB
1 24236U 94029LK  13289.03051053  .00007734  00000-0  15368-2 0  5083
2 24236 081.4259 131.4376 0499952 124.3500 025.3991 14.04656504877473
0 PEGASUS DEB
1 24236U 94029LK  13290.36574251  .00007173  00000-0  14250-2 0  5098
2 24236 081.4253 130.1701 0499871 120.5793 297.3836 14.04670087877669
0 PEGASUS DEB
1 24236U 94029LK  13291.49848689  .00006226  00000-0  12364-2 0  5106
2 24236 081.4251 129.0953 0499750 117.3755 265.4868 14.04684431877828
0 PEGASUS DEB
1 24236U 94029LK  13292.86041903  .00006183  00000-0  12280-2 0  5112
2 24236 081.4250 127.8028 0499637 113.5260 312.6322 14.04698170878016
0 PEGASUS DEB
1 24236U 94029LK  13294.08501273  .00005775  00000-0  11466-2 0  5121
2 24236 081.4251 126.6405 0499582 110.0616 025.3169 14.04709005878184
0 PEGASUS DEB
1 24236U 94029LK  13295.48777519  .00006791  00000-0  13490-2 0  5133
2 24236 081.4254 125.3090 0499541 106.0937 279.0605 14.04722645878389
